[{"OBJECT_NAME":"STARLINK-32479","OBJECT_ID":"2024-224K","EPOCH":"2026-03-09T06:05:46.346496","MEAN_MOTION":15.27590966,"ECCENTRICITY":3.722e-5,"INCLINATION":42.9968,"RA_OF_ASC_NODE":160.5456,"ARG_OF_PERICENTER":280.0789,"MEAN_ANOMALY":80.002,"EPHEMERIS_TYPE":0,"CLASSIFICATION_TYPE":"U","NORAD_CAT_ID":62148,"ELEMENT_SET_NO":999,"REV_AT_EPOCH":7235,"BSTAR":0.0014321868,"MEAN_MOTION_DOT":0.00039372,"MEAN_MOTION_DDOT":0},{"OBJECT_NAME":"TITAN 4B R\/B","OBJECT_ID":"2005-016B","EPOCH":"2026-03-09T20:27:57.848832","MEAN_MOTION":15.42682045,"ECCENTRICITY":0.00616552,"INCLINATION":56.9964,"RA_OF_ASC_NODE":245.9411,"ARG_OF_PERICENTER":20.2929,"MEAN_ANOMALY":340.0555,"EPHEMERIS_TYPE":0,"CLASSIFICATION_TYPE":"U","NORAD_CAT_ID":28647,"ELEMENT_SET_NO":999,"REV_AT_EPOCH":37707,"BSTAR":0.00046483736,"MEAN_MOTION_DOT":0.0002164,"MEAN_MOTION_DDOT":0}]
